{"type": "FeatureCollection", "features": [ {"type": "Feature", "properties": {"norad_id": 29808, "name": "FENGYUN 1C DEB", "group": "fengyun-1c-debris", "lat": 26.69881994128334, "lon": -110.21160878323354, "alt_km": 515.748080839332, "timestamp": "2025-12-03T17:47:50.989117+00:00", "meta": {"OBJECT_NAME": "FENGYUN 1C DEB", "OBJECT_ID": "1999-025DA", "EPOCH": "2025-12-03T05:40:27.130368", "MEAN_MOTION": 15.14781742, "ECCENTRICITY": 0.0016119, "INCLINATION": 99.0162, "RA_OF_ASC_NODE": 253.7705, "ARG_OF_PERICENTER": 97.5907, "MEAN_ANOMALY": 56.5412, "EPHEMERIS_TYPE": 0, "CLASSIFICATION_TYPE": "U", "NORAD_CAT_ID": 29808, "ELEMENT_SET_NO": 999, "REV_AT_EPOCH": 98081, "BSTAR": 0.01515, "MEAN_MOTION_DOT": 0.00293258, "MEAN_MOTION_DDOT": 0}, "tle": {"line1": "1 29808U 99025DA  25337.23642512  .00293258  00000+0  15150-1 0  9998", "line2": "2 29808  99.0162 253.7705 0016119  97.5907  56.5412 15.14781742980819"}}, "geometry": {"type": "Point", "coordinates": [-110.21160878323354, 26.69881994128334]}}, {"type": "Feature", "properties": {"norad_id": 29809, "name": "FENGYUN 1C DEB", "group": "fengyun-1c-debris", "lat": 59.612705513637636, "lon": 136.29836165212356, "alt_km": 747.8378508119258, "timestamp": "2025-12-03T17:47:50.989127+00:00", "meta": {"OBJECT_NAME": "FENGYUN 1C DEB", "OBJECT_ID": "1999-025DB", "EPOCH": "2025-12-03T09:38:51.466848", "MEAN_MOTION": 14.46544734, "ECCENTRICITY": 0.0116747, "INCLINATION": 98.8589, "RA_OF_ASC_NODE": 300.519, "ARG_OF_PERICENTER": 17.9028, "MEAN_ANOMALY": 132.5633, "EPHEMERIS_TYPE": 0, "CLASSIFICATION_TYPE": "U", "NORAD_CAT_ID": 29809, "ELEMENT_SET_NO": 999, "REV_AT_EPOCH": 99332, "BSTAR": 0.00054398, "MEAN_MOTION_DOT": 2.08e-05, "MEAN_MOTION_DDOT": 0}, "tle": {"line1": "1 29809U 99025DB  25337.40198457  .00002080  00000+0  54398-3 0  9992", "line2": "2 29809  98.8589 300.5190 0116747  17.9028 132.5633 14.46544734993329"}}, "geometry": {"type": "Point", "coordinates": [136.29836165212356, 59.612705513637636]}}, {"type": "Feature", "properties": {"norad_id": 29810, "name": "FENGYUN 1C DEB", "group": "fengyun-1c-debris", "lat": -15.152130306406656, "lon": 16.58166293315703, "alt_km": 774.9678006723161, "timestamp": "2025-12-03T17:47:50.989137+00:00", "meta": {"OBJECT_NAME": "FENGYUN 1C DEB", "OBJECT_ID": "1999-025DC", "EPOCH": "2025-12-03T01:20:12.766848", "MEAN_MOTION": 14.29107829, "ECCENTRICITY": 0.00673241, "INCLINATION": 99.2079, "RA_OF_ASC_NODE": 13.3401, "ARG_OF_PERICENTER": 46.7271, "MEAN_ANOMALY": 12.0755, "EPHEMERIS_TYPE": 0, "CLASSIFICATION_TYPE": "U", "NORAD_CAT_ID": 29810, "ELEMENT_SET_NO": 999, "REV_AT_EPOCH": 98239, "BSTAR": 0.00034769417, "MEAN_MOTION_DOT": 8.55e-06, "MEAN_MOTION_DDOT": 0}, "tle": {"line1": "1 29810U 99025DC  25337.05570332  .00000855  00000+0  34769-3 0  9999", "line2": "2 29810  99.2079  13.3401 0067324  46.7271  12.0755 14.29107829982393"}}, "geometry": {"type": "Point", "coordinates": [16.58166293315703, -15.152130306406656]}}, {"type": "Feature", "properties": {"norad_id": 29812, "name": "FENGYUN 1C DEB", "group": "fengyun-1c-debris", "lat": 23.309530616128978, "lon": 163.69914699490386, "alt_km": 796.1634874383062, "timestamp": "2025-12-03T17:47:50.989147+00:00", "meta": {"OBJECT_NAME": "FENGYUN 1C DEB", "OBJECT_ID": "1999-025DE", "EPOCH": "2025-11-29T11:12:47.447712", "MEAN_MOTION": 14.01918477, "ECCENTRICITY": 0.01440113, "INCLINATION": 98.3498, "RA_OF_ASC_NODE": 163.4107, "ARG_OF_PERICENTER": 5.1053, "MEAN_ANOMALY": 57.4679, "EPHEMERIS_TYPE": 0, "CLASSIFICATION_TYPE": "U", "NORAD_CAT_ID": 29812, "ELEMENT_SET_NO": 999, "REV_AT_EPOCH": 95986, "BSTAR": 0.0011179541, "MEAN_MOTION_DOT": 1.825e-05, "MEAN_MOTION_DDOT": 0}, "tle": {"line1": "1 29812U 99025DE  25333.46721583  .00001825  00000+0  11180-2 0  9997", "line2": "2 29812  98.3498 163.4107 0144011   5.1053  57.4679 14.01918477959869"}}, "geometry": {"type": "Point", "coordinates": [163.69914699490386, 23.309530616128978]}}, {"type": "Feature", "properties": {"norad_id": 29813, "name": "FENGYUN 1C DEB", "group": "fengyun-1c-debris", "lat": 49.056030463426694, "lon": -171.9214778576469, "alt_km": 860.8404830136351, "timestamp": "2025-12-03T17:47:50.989157+00:00", "meta": {"OBJECT_NAME": "FENGYUN 1C DEB", "OBJECT_ID": "1999-025DF", "EPOCH": "2025-12-03T12:47:50.931168", "MEAN_MOTION": 14.09447152, "ECCENTRICITY": 0.0011517, "INCLINATION": 98.7282, "RA_OF_ASC_NODE": 357.6774, "ARG_OF_PERICENTER": 249.8797, "MEAN_ANOMALY": 263.8296, "EPHEMERIS_TYPE": 0, "CLASSIFICATION_TYPE": "U", "NORAD_CAT_ID": 29813, "ELEMENT_SET_NO": 999, "REV_AT_EPOCH": 97130, "BSTAR": 0.00014705, "MEAN_MOTION_DOT": 2.14e-06, "MEAN_MOTION_DDOT": 0}, "tle": {"line1": "1 29813U 99025DF  25337.53322837  .00000214  00000+0  14705-3 0  9997", "line2": "2 29813  98.7282 357.6774 0011517 249.8797 263.8296 14.09447152971304"}}, "geometry": {"type": "Point", "coordinates": [-171.9214778576469, 49.056030463426694]}}, {"type": "Feature", "properties": {"norad_id": 29815, "name": "FENGYUN 1C DEB", "group": "fengyun-1c-debris", "lat": 26.159647418499922, "lon": 170.44603088135557, "alt_km": 552.8540927463264, "timestamp": "2025-12-03T17:47:50.989167+00:00", "meta": {"OBJECT_NAME": "FENGYUN 1C DEB", "OBJECT_ID": "1999-025DH", "EPOCH": "2025-12-03T12:10:38.665344", "MEAN_MOTION": 14.63616059, "ECCENTRICITY": 0.0183614, "INCLINATION": 98.0558, "RA_OF_ASC_NODE": 346.228, "ARG_OF_PERICENTER": 164.1871, "MEAN_ANOMALY": 196.5172, "EPHEMERIS_TYPE": 0, "CLASSIFICATION_TYPE": "U", "NORAD_CAT_ID": 29815, "ELEMENT_SET_NO": 999, "REV_AT_EPOCH": 99720, "BSTAR": 0.00071825, "MEAN_MOTION_DOT": 4.717e-05, "MEAN_MOTION_DDOT": 0}, "tle": {"line1": "1 29815U 99025DH  25337.50739196  .00004717  00000+0  71825-3 0  9994", "line2": "2 29815  98.0558 346.2280 0183614 164.1871 196.5172 14.63616059997207"}}, "geometry": {"type": "Point", "coordinates": [170.44603088135557, 26.159647418499922]}}, {"type": "Feature", "properties": {"norad_id": 29816, "name": "FENGYUN 1C DEB", "group": "fengyun-1c-debris", "lat": -48.764070397609395, "lon": 6.804148256381477, "alt_km": 597.9753378500591, "timestamp": "2025-12-03T17:47:50.989177+00:00", "meta": {"OBJECT_NAME": "FENGYUN 1C DEB", "OBJECT_ID": "1999-025DJ", "EPOCH": "2025-12-03T09:15:19.251936", "MEAN_MOTION": 14.44142775, "ECCENTRICITY": 0.0237894, "INCLINATION": 98.9936, "RA_OF_ASC_NODE": 196.837, "ARG_OF_PERICENTER": 205.0376, "MEAN_ANOMALY": 333.9499, "EPHEMERIS_TYPE": 0, "CLASSIFICATION_TYPE": "U", "NORAD_CAT_ID": 29816, "ELEMENT_SET_NO": 999, "REV_AT_EPOCH": 98052, "BSTAR": 0.0018078, "MEAN_MOTION_DOT": 8.712e-05, "MEAN_MOTION_DDOT": 0}, "tle": {"line1": "1 29816U 99025DJ  25337.38563949  .00008712  00000+0  18078-2 0  9991", "line2": "2 29816  98.9936 196.8370 0237894 205.0376 333.9499 14.44142775980525"}}, "geometry": {"type": "Point", "coordinates": [6.804148256381477, -48.764070397609395]}}, {"type": "Feature", "properties": {"norad_id": 29817, "name": "FENGYUN 1C DEB", "group": "fengyun-1c-debris", "lat": 57.38790168828933, "lon": -46.290012739129736, "alt_km": 830.663878835986, "timestamp": "2025-12-03T17:47:50.989188+00:00", "meta": {"OBJECT_NAME": "FENGYUN 1C DEB", "OBJECT_ID": "1999-025DK", "EPOCH": "2025-12-03T11:26:41.193888", "MEAN_MOTION": 14.142335, "ECCENTRICITY": 0.0012691, "INCLINATION": 98.5569, "RA_OF_ASC_NODE": 327.0668, "ARG_OF_PERICENTER": 40.9155, "MEAN_ANOMALY": 110.6304, "EPHEMERIS_TYPE": 0, "CLASSIFICATION_TYPE": "U", "NORAD_CAT_ID": 29817, "ELEMENT_SET_NO": 999, "REV_AT_EPOCH": 97264, "BSTAR": 0.00044796, "MEAN_MOTION_DOT": 8.14e-06, "MEAN_MOTION_DDOT": 0}, "tle": {"line1": "1 29817U 99025DK  25337.47686567  .00000814  00000+0  44796-3 0  9996", "line2": "2 29817  98.5569 327.0668 0012691  40.9155 110.6304 14.14233500972642"}}, "geometry": {"type": "Point", "coordinates": [-46.290012739129736, 57.38790168828933]}}, {"type": "Feature", "properties": {"norad_id": 29818, "name": "FENGYUN 1C DEB", "group": "fengyun-1c-debris", "lat": 68.36925139741928, "lon": 58.18104801659502, "alt_km": 827.5956807243683, "timestamp": "2025-12-03T17:47:50.989198+00:00", "meta": {"OBJECT_NAME": "FENGYUN 1C DEB", "OBJECT_ID": "1999-025DL", "EPOCH": "2025-12-03T11:17:51.308736", "MEAN_MOTION": 14.04492175, "ECCENTRICITY": 0.0115449, "INCLINATION": 98.7219, "RA_OF_ASC_NODE": 215.1459, "ARG_OF_PERICENTER": 51.7086, "MEAN_ANOMALY": 128.3966, "EPHEMERIS_TYPE": 0, "CLASSIFICATION_TYPE": "U", "NORAD_CAT_ID": 29818, "ELEMENT_SET_NO": 999, "REV_AT_EPOCH": 96679, "BSTAR": 0.00031401, "MEAN_MOTION_DOT": 4.9e-06, "MEAN_MOTION_DDOT": 0}, "tle": {"line1": "1 29818U 99025DL  25337.47073274  .00000490  00000+0  31401-3 0  9991", "line2": "2 29818  98.7219 215.1459 0115449  51.7086 128.3966 14.04492175966793"}}, "geometry": {"type": "Point", "coordinates": [58.18104801659502, 68.36925139741928]}}, {"type": "Feature", "properties": {"norad_id": 29819, "name": "FENGYUN 1C DEB", "group": "fengyun-1c-debris", "lat": -63.77392492390855, "lon": -19.968877967127067, "alt_km": 1021.4207594745221, "timestamp": "2025-12-03T17:47:50.989208+00:00", "meta": {"OBJECT_NAME": "FENGYUN 1C DEB", "OBJECT_ID": "1999-025DM", "EPOCH": "2025-12-03T11:50:07.664064", "MEAN_MOTION": 14.02175159, "ECCENTRICITY": 0.01916, "INCLINATION": 98.7302, "RA_OF_ASC_NODE": 321.6184, "ARG_OF_PERICENTER": 92.8265, "MEAN_ANOMALY": 29.6352, "EPHEMERIS_TYPE": 0, "CLASSIFICATION_TYPE": "U", "NORAD_CAT_ID": 29819, "ELEMENT_SET_NO": 999, "REV_AT_EPOCH": 96490, "BSTAR": 0.00052907, "MEAN_MOTION_DOT": 9.11e-06, "MEAN_MOTION_DDOT": 0}, "tle": {"line1": "1 29819U 99025DM  25337.49314426  .00000911  00000+0  52907-3 0  9993", "line2": "2 29819  98.7302 321.6184 0191600  92.8265  29.6352 14.02175159964904"}}, "geometry": {"type": "Point", "coordinates": [-19.968877967127067, -63.77392492390855]}}]}